CCSDS_OMM_VERS = 2.0
CREATION_DATE  = 
ORIGINATOR     = 

OBJECT_NAME    = STARLINK-37107
OBJECT_ID      = 2026-057A
CENTER_NAME    = EARTH
REF_FRAME      = TEME
TIME_SYSTEM    = UTC
MEAN_ELEMENT_THEORY = SGP/SGP4

EPOCH          = 2026-04-04T20:00:01.999008
MEAN_MOTION    = 15.83527851
ECCENTRICITY   = .0001192
INCLINATION    = 97.2824
RA_OF_ASC_NODE = 218.4851
ARG_OF_PERICENTER = 73.0495
MEAN_ANOMALY   = 301.6118

EPHEMERIS_TYPE = 0
CLASSIFICATION_TYPE = U
NORAD_CAT_ID   = 68294
ELEMENT_SET_NO = 999
REV_AT_EPOCH   = 336
BSTAR          = -.70992E-2
MEAN_MOTION_DOT = -.1352556E-1
MEAN_MOTION_DDOT = 0

CCSDS_OMM_VERS = 2.0
CREATION_DATE  = 
ORIGINATOR     = 

OBJECT_NAME    = STARLINK-37147
OBJECT_ID      = 2026-057B
CENTER_NAME    = EARTH
REF_FRAME      = TEME
TIME_SYSTEM    = UTC
MEAN_ELEMENT_THEORY = SGP/SGP4

EPOCH          = 2026-04-04T20:00:01.999008
MEAN_MOTION    = 15.83571200
ECCENTRICITY   = .0001116
INCLINATION    = 97.2818
RA_OF_ASC_NODE = 218.4857
ARG_OF_PERICENTER = 82.2664
MEAN_ANOMALY   = 296.5444

EPHEMERIS_TYPE = 0
CLASSIFICATION_TYPE = U
NORAD_CAT_ID   = 68295
ELEMENT_SET_NO = 999
REV_AT_EPOCH   = 335
BSTAR          = -.70883E-2
MEAN_MOTION_DOT = -.1353124E-1
MEAN_MOTION_DDOT = 0

CCSDS_OMM_VERS = 2.0
CREATION_DATE  = 
ORIGINATOR     = 

OBJECT_NAME    = STARLINK-37142
OBJECT_ID      = 2026-057C
CENTER_NAME    = EARTH
REF_FRAME      = TEME
TIME_SYSTEM    = UTC
MEAN_ELEMENT_THEORY = SGP/SGP4

EPOCH          = 2026-04-04T20:00:01.999008
MEAN_MOTION    = 15.83621563
ECCENTRICITY   = .0001312
INCLINATION    = 97.2808
RA_OF_ASC_NODE = 218.4909
ARG_OF_PERICENTER = 74.4107
MEAN_ANOMALY   = 317.2359

EPHEMERIS_TYPE = 0
CLASSIFICATION_TYPE = U
NORAD_CAT_ID   = 68296
ELEMENT_SET_NO = 999
REV_AT_EPOCH   = 324
BSTAR          = -.72667E-2
MEAN_MOTION_DOT = -.1385864E-1
MEAN_MOTION_DDOT = 0

CCSDS_OMM_VERS = 2.0
CREATION_DATE  = 
ORIGINATOR     = 

OBJECT_NAME    = STARLINK-37115
OBJECT_ID      = 2026-057D
CENTER_NAME    = EARTH
REF_FRAME      = TEME
TIME_SYSTEM    = UTC
MEAN_ELEMENT_THEORY = SGP/SGP4

EPOCH          = 2026-04-04T20:00:01.999008
MEAN_MOTION    = 15.83572890
ECCENTRICITY   = .0001203
INCLINATION    = 97.2807
RA_OF_ASC_NODE = 218.4881
ARG_OF_PERICENTER = 82.2553
MEAN_ANOMALY   = 305.1901

EPHEMERIS_TYPE = 0
CLASSIFICATION_TYPE = U
NORAD_CAT_ID   = 68297
ELEMENT_SET_NO = 999
REV_AT_EPOCH   = 324
BSTAR          = -.71241E-2
MEAN_MOTION_DOT = -.1359269E-1
MEAN_MOTION_DDOT = 0

CCSDS_OMM_VERS = 2.0
CREATION_DATE  = 
ORIGINATOR     = 

OBJECT_NAME    = STARLINK-36355
OBJECT_ID      = 2026-057E
CENTER_NAME    = EARTH
REF_FRAME      = TEME
TIME_SYSTEM    = UTC
MEAN_ELEMENT_THEORY = SGP/SGP4

EPOCH          = 2026-04-04T20:00:01.999008
MEAN_MOTION    = 15.83596307
ECCENTRICITY   = .0000976
INCLINATION    = 97.2814
RA_OF_ASC_NODE = 218.4872
ARG_OF_PERICENTER = 88.5875
MEAN_ANOMALY   = 294.4354

EPHEMERIS_TYPE = 0
CLASSIFICATION_TYPE = U
NORAD_CAT_ID   = 68298
ELEMENT_SET_NO = 999
REV_AT_EPOCH   = 351
BSTAR          = -.70743E-2
MEAN_MOTION_DOT = -.1352116E-1
MEAN_MOTION_DDOT = 0

CCSDS_OMM_VERS = 2.0
CREATION_DATE  = 
ORIGINATOR     = 

OBJECT_NAME    = STARLINK-37118
OBJECT_ID      = 2026-057F
CENTER_NAME    = EARTH
REF_FRAME      = TEME
TIME_SYSTEM    = UTC
MEAN_ELEMENT_THEORY = SGP/SGP4

EPOCH          = 2026-04-04T20:00:01.999008
MEAN_MOTION    = 15.83638871
ECCENTRICITY   = .0001362
INCLINATION    = 97.2800
RA_OF_ASC_NODE = 218.4938
ARG_OF_PERICENTER = 68.5842
MEAN_ANOMALY   = 331.7470

EPHEMERIS_TYPE = 0
CLASSIFICATION_TYPE = U
NORAD_CAT_ID   = 68299
ELEMENT_SET_NO = 999
REV_AT_EPOCH   = 335
BSTAR          = -.76767E-2
MEAN_MOTION_DOT = -.148439E-1
MEAN_MOTION_DDOT = 0

CCSDS_OMM_VERS = 2.0
CREATION_DATE  = 
ORIGINATOR     = 

OBJECT_NAME    = STARLINK-36875
OBJECT_ID      = 2026-057G
CENTER_NAME    = EARTH
REF_FRAME      = TEME
TIME_SYSTEM    = UTC
MEAN_ELEMENT_THEORY = SGP/SGP4

EPOCH          = 2026-04-04T20:00:01.999008
MEAN_MOTION    = 15.83597567
ECCENTRICITY   = .0001375
INCLINATION    = 97.2806
RA_OF_ASC_NODE = 218.4923
ARG_OF_PERICENTER = 69.2959
MEAN_ANOMALY   = 326.8312

EPHEMERIS_TYPE = 0
CLASSIFICATION_TYPE = U
NORAD_CAT_ID   = 68300
ELEMENT_SET_NO = 999
REV_AT_EPOCH   = 341
BSTAR          = -.7544E-2
MEAN_MOTION_DOT = -.1459098E-1
MEAN_MOTION_DDOT = 0

CCSDS_OMM_VERS = 2.0
CREATION_DATE  = 
ORIGINATOR     = 

OBJECT_NAME    = STARLINK-37099
OBJECT_ID      = 2026-057H
CENTER_NAME    = EARTH
REF_FRAME      = TEME
TIME_SYSTEM    = UTC
MEAN_ELEMENT_THEORY = SGP/SGP4

EPOCH          = 2026-04-04T20:00:01.999008
MEAN_MOTION    = 15.83574144
ECCENTRICITY   = .0001428
INCLINATION    = 97.2797
RA_OF_ASC_NODE = 218.4960
ARG_OF_PERICENTER = 73.5338
MEAN_ANOMALY   = 331.3628

EPHEMERIS_TYPE = 0
CLASSIFICATION_TYPE = U
NORAD_CAT_ID   = 68301
ELEMENT_SET_NO = 999
REV_AT_EPOCH   = 324
BSTAR          = -.79411E-2
MEAN_MOTION_DOT = -.1525377E-1
MEAN_MOTION_DDOT = 0

CCSDS_OMM_VERS = 2.0
CREATION_DATE  = 
ORIGINATOR     = 

OBJECT_NAME    = STARLINK-37007
OBJECT_ID      = 2026-057J
CENTER_NAME    = EARTH
REF_FRAME      = TEME
TIME_SYSTEM    = UTC
MEAN_ELEMENT_THEORY = SGP/SGP4

EPOCH          = 2026-04-04T20:00:01.999008
MEAN_MOTION    = 15.83409039
ECCENTRICITY   = .000131
INCLINATION    = 97.2787
RA_OF_ASC_NODE = 218.4987
ARG_OF_PERICENTER = 82.9215
MEAN_ANOMALY   = 331.0605

EPHEMERIS_TYPE = 0
CLASSIFICATION_TYPE = U
NORAD_CAT_ID   = 68302
ELEMENT_SET_NO = 999
REV_AT_EPOCH   = 346
BSTAR          = -.81628E-2
MEAN_MOTION_DOT = -.1551963E-1
MEAN_MOTION_DDOT = 0

CCSDS_OMM_VERS = 2.0
CREATION_DATE  = 
ORIGINATOR     = 

OBJECT_NAME    = STARLINK-36300
OBJECT_ID      = 2026-057K
CENTER_NAME    = EARTH
REF_FRAME      = TEME
TIME_SYSTEM    = UTC
MEAN_ELEMENT_THEORY = SGP/SGP4

EPOCH          = 2026-04-04T20:00:01.999008
MEAN_MOTION    = 15.83465104
ECCENTRICITY   = .0001319
INCLINATION    = 97.2792
RA_OF_ASC_NODE = 218.4968
ARG_OF_PERICENTER = 82.9194
MEAN_ANOMALY   = 326.6174

EPHEMERIS_TYPE = 0
CLASSIFICATION_TYPE = U
NORAD_CAT_ID   = 68303
ELEMENT_SET_NO = 999
REV_AT_EPOCH   = 351
BSTAR          = -.81164E-2
MEAN_MOTION_DOT = -.1547833E-1
MEAN_MOTION_DDOT = 0

CCSDS_OMM_VERS = 2.0
CREATION_DATE  = 
ORIGINATOR     = 

OBJECT_NAME    = STARLINK-36849
OBJECT_ID      = 2026-057L
CENTER_NAME    = EARTH
REF_FRAME      = TEME
TIME_SYSTEM    = UTC
MEAN_ELEMENT_THEORY = SGP/SGP4

EPOCH          = 2026-04-04T20:00:01.999008
MEAN_MOTION    = 15.83440855
ECCENTRICITY   = .0001433
INCLINATION    = 97.2789
RA_OF_ASC_NODE = 218.5009
ARG_OF_PERICENTER = 70.5453
MEAN_ANOMALY   = 347.6523

EPHEMERIS_TYPE = 0
CLASSIFICATION_TYPE = U
NORAD_CAT_ID   = 68304
ELEMENT_SET_NO = 999
REV_AT_EPOCH   = 341
BSTAR          = -.82501E-2
MEAN_MOTION_DOT = -.1568706E-1
MEAN_MOTION_DDOT = 0

CCSDS_OMM_VERS = 2.0
CREATION_DATE  = 
ORIGINATOR     = 

OBJECT_NAME    = STARLINK-36277
OBJECT_ID      = 2026-057M
CENTER_NAME    = EARTH
REF_FRAME      = TEME
TIME_SYSTEM    = UTC
MEAN_ELEMENT_THEORY = SGP/SGP4

EPOCH          = 2026-04-04T20:00:01.999008
MEAN_MOTION    = 15.83388770
ECCENTRICITY   = .0001388
INCLINATION    = 97.2777
RA_OF_ASC_NODE = 218.5035
ARG_OF_PERICENTER = 80.6431
MEAN_ANOMALY   = 346.2631

EPHEMERIS_TYPE = 0
CLASSIFICATION_TYPE = U
NORAD_CAT_ID   = 68305
ELEMENT_SET_NO = 999
REV_AT_EPOCH   = 357
BSTAR          = -.82884E-2
MEAN_MOTION_DOT = -.1571653E-1
MEAN_MOTION_DDOT = 0

